[{"OBJECT_NAME":"STARLINK-4747","OBJECT_ID":"2022-114Q","EPOCH":"2026-03-09T21:06:54.664704","MEAN_MOTION":15.0883962,"ECCENTRICITY":0.0001232,"INCLINATION":53.218,"RA_OF_ASC_NODE":303.017,"ARG_OF_PERICENTER":77.1997,"MEAN_ANOMALY":282.9133,"EPHEMERIS_TYPE":0,"CLASSIFICATION_TYPE":"U","NORAD_CAT_ID":53832,"ELEMENT_SET_NO":999,"REV_AT_EPOCH":19286,"BSTAR":-3.4627075e-5,"MEAN_MOTION_DOT":-8.39e-6,"MEAN_MOTION_DDOT":0},{"OBJECT_NAME":"CZ-4B DEB","OBJECT_ID":"2004-035J","EPOCH":"2026-03-07T20:16:16.859712","MEAN_MOTION":15.09572175,"ECCENTRICITY":0.00105031,"INCLINATION":97.5432,"RA_OF_ASC_NODE":82.067,"ARG_OF_PERICENTER":356.2804,"MEAN_ANOMALY":3.8346,"EPHEMERIS_TYPE":0,"CLASSIFICATION_TYPE":"U","NORAD_CAT_ID":29042,"ELEMENT_SET_NO":999,"REV_AT_EPOCH":69625,"BSTAR":0.00031812935,"MEAN_MOTION_DOT":5.052e-5,"MEAN_MOTION_DDOT":0}]
